{"spkid": "50423047", "covariance": {"elements": [{"label": "e", "units": null, "value": ".4947184795046162", "title": "eccentricity", "sigma": 9.88783229503769e-08, "name": "e"}, {"label": "q", "sigma": 1.20106912641555e-07, "name": "q", "title": "perihelion distance", "value": ".6874549642448693", "units": "au"}, {"sigma": 3.80008497012071e-05, "name": "tp", "title": "time of perihelion passage", "value": "2455909.273412216898", "units": "TDB", "label": "tp"}, {"label": "node", "units": "deg", "value": "129.6657906886764", "title": "longitude of the ascending node", "name": "om", "sigma": 0.000103758982319015}, {"label": "peri", "units": "deg", "title": "argument of perihelion", "value": "284.1315096717036", "name": "w", "sigma": 0.000108437428744392}, {"units": "deg", "title": "inclination", "value": "2.755063677390403", "sigma": 1.6359096428381e-05, "name": "i", "label": "i"}], "data": [["9.776922749479032E-15", "-1.187142895662255E-14", "3.515857265484025E-12", "-1.92508119736546E-12", "3.070131339655418E-12", "-5.705793065125075E-13"], ["-1.187142895662255E-14", "1.442567046428612E-14", "-4.228693770517895E-12", "2.267010221934995E-12", "-3.635166563845064E-12", "6.825606423904455E-13"], ["3.515857265484025E-12", "-4.228693770517895E-12", "1.444064578013729E-9", "-9.707395769526597E-10", "1.491141213538054E-9", "-2.486058999355857E-10"], ["-1.92508119736546E-12", "2.267010221934995E-12", "-9.707395769526597E-10", "1.076592641187775E-8", "-1.115781326710115E-8", "1.540967253925916E-9"], ["3.070131339655418E-12", "-3.635166563845064E-12", "1.491141213538054E-9", "-1.115781326710115E-8", "1.175867595269516E-8", "-1.63208252518897E-9"], ["-5.705793065125075E-13", "6.825606423904455E-13", "-2.486058999355857E-10", "1.540967253925916E-9", "-1.63208252518897E-9", "2.676200359530676E-10"]], "labels": ["e", "q", "tp", "node", "peri", "i"], "epoch": "2455726.5"}, "elements": [{"label": "e", "units": null, "value": ".4931740439783267", "title": "eccentricity", "name": "e", "sigma": "1.6698E-7"}, {"label": "a", "units": "au", "value": "1.355668556999022", "title": "semi-major axis", "sigma": "7.9832E-7", "name": "a"}, {"units": "au", "title": "perihelion distance", "value": ".6870880124495518", "sigma": "1.8206E-7", "name": "q", "label": "q"}, {"name": "i", "sigma": "1.5637E-5", "value": "2.761655993675117", "title": "inclination; angle with respect to x-y ecliptic plane", "units": "deg", "label": "i"}, {"title": "longitude of the ascending node", "value": "129.8199189575362", "units": "deg", "sigma": ".00012351", "name": "om", "label": "node"}, {"name": "w", "sigma": ".00010069", "units": "deg", "value": "284.1185902972349", "title": "argument of perihelion", "label": "peri"}, {"label": "M", "sigma": "7.8555E-5", "name": "ma", "title": "mean anomaly", "value": "48.71813617363015", "units": "deg"}, {"units": "TDB", "title": "time of perihelion passage", "value": "2461122.478036424088", "name": "tp", "sigma": ".00019463", "label": "tp"}, {"title": "sidereal orbital period", "value": "576.5390282424539", "units": "d", "name": "per", "sigma": ".00050926", "label": "period"}, {"label": "n", "name": "n", "sigma": "5.5155E-7", "units": "deg/d", "title": "mean motion", "value": ".62441566375383"}, {"label": "Q", "sigma": "1.192E-6", "name": "ad", "value": "2.024249101548493", "title": "aphelion distance", "units": "au"}], "epoch": "2461200.5"}